GLOBALSTAR M023         
1 25621U 99004A   26018.00785049 -.00000036  00000+0  37813-3 0  9992
2 25621  52.0103 119.3012 0009411 238.8552 292.3070 12.62514295242866
GLOBALSTAR M040         
1 25622U 99004B   26017.55635296 -.00000132  00000+0 -15796-3 0  9994
2 25622  51.9921 125.1455 0001743 129.6127 243.9422 12.62026547242326
GLOBALSTAR M036         
1 25623U 99004C   26017.78464645 -.00000050  00000+0  47159-3 0  9994
2 25623  51.9985  34.6769 0010813 102.3753  68.0315 11.86616818204450
GLOBALSTAR M038         
1 25624U 99004D   26017.85693530 -.00000095  00000+0 -17734-5 0  9998
2 25624  51.9952 173.3398 0002784 125.1585  26.0136 12.32539322228848
GLOBALSTAR M022         
1 25649U 99012A   26017.54989286 -.00000045  00000+0  50033-3 0  9997
2 25649  52.0047  68.1605 0002636 224.5597 288.4744 12.02508704202160
GLOBALSTAR M041         
1 25650U 99012B   26017.96505955 -.00000055  00000+0  39494-3 0  9991
2 25650  52.0043 315.0334 0001766  36.2349 323.8606 11.96682956203994
GLOBALSTAR M046         
1 25651U 99012C   26017.75522082 -.00000097  00000+0 -93543-4 0  9992
2 25651  52.0080   9.9046 0001852 327.3187 203.7026 12.09418821209626
GLOBALSTAR M037         
1 25652U 99012D   26017.81723872 -.00000072  00000+0  17445-3 0  9998
2 25652  51.9987 250.4219 0001549 333.1163 105.9257 12.62459263238386
